[{"data": [{"barometer": {"hg": 30.0, "hpa": 1016.0, "kpa": 101.59, "mb": 1015.92}, "ceiling": {"base_feet_agl": 3700, "base_meters_agl": 1128, "code": "BKN", "feet": 3700, "meters": 1128, "text": "Broken"}, "clouds": [{"base_feet_agl": 2400, "base_meters_agl": 732, "code": "SCT", "feet": 2400, "meters": 732, "text": "Scattered"}, {"base_feet_agl": 3700, "base_meters_agl": 1128, "code": "BKN", "feet": 3700, "meters": 1128, "text": "Broken"}], "dewpoint": {"celsius": 12, "fahrenheit": 54}, "elevation": {"feet": 351, "meters": 107}, "flight_category": "VFR", "humidity": {"percent": 94}, "icao": "EPWA", "observed": "2022-10-25T20:30Z", "position": {"base": {"latitude": 52.2319581, "longitude": 21.0067249}, "bearing": {"from": 200, "to": 20}, "meters": 7847.0, "miles": 4.2}, "raw_text": "EPWA 252030Z 27009KT 9999 SCT024 BKN037 13/12 Q1016 NOSIG", "station": {"geometry": {"coordinates": [20.9671, 52.165699], "type": "Point"}, "location": "Warsaw, PL", "name": "Warsaw Chopin Airport", "type": "Airport"}, "temperature": {"celsius": 13, "fahrenheit": 55}, "visibility": {"meters": "10,000+", "meters_float": 9999, "miles": "Greater than 6", "miles_float": 6.21}, "wind": {"degrees": 270, "speed_kph": 17, "speed_kts": 9, "speed_mph": 10, "speed_mps": 5}}], "results": 1}, {"data": [{"barometer": {"hg": 30.12, "hpa": 1020.0, "kpa": 101.99, "mb": 1019.92}, "clouds": [{"code": "CAVOK", "text": "Clear skies"}], "dewpoint": {"celsius": 8, "fahrenheit": 46}, "elevation": {"feet": 463, "meters": 141}, "flight_category": "VFR", "humidity": {"percent": 88}, "icao": "LHBP", "observed": "2022-10-25T20:30Z", "position": {"base": {"latitude": 47.4979937, "longitude": 19.0403594}, "bearing": {"from": 114, "to": 295}, "meters": 18245.8, "miles": 9.9}, "raw_text": "LHBP 252030Z 33002KT CAVOK 10/08 Q1020 NOSIG", "station": {"geometry": {"coordinates": [19.261093, 47.42976], "type": "Point"}, "location": "Budapest, HU", "name": "Budapest Liszt Ferenc International Airport", "type": "Airport"}, "temperature": {"celsius": 10, "fahrenheit": 50}, "visibility": {"meters": "10,000+", "meters_float": 9999, "miles": "Greater than 6", "miles_float": 6.21}, "wind": {"degrees": 330, "speed_kph": 4, "speed_kts": 2, "speed_mph": 2, "speed_mps": 1}}], "results": 1}]